{"type": "FeatureCollection", "features": [ {"type": "Feature", "properties": {"norad_id": 66406, "name": "STARLINK-34840", "group": "last-30-days", "lat": -13.9588882625495, "lon": 134.32583870877215, "alt_km": 421.31294556974626, "timestamp": "2025-12-04T09:47:36.301359+00:00", "meta": {"OBJECT_NAME": "STARLINK-34840", "OBJECT_ID": "2025-257AC", "EPOCH": "2025-12-03T22:06:29.577024", "MEAN_MOTION": 15.49344183, "ECCENTRICITY": 0.00013685, "INCLINATION": 53.1588, "RA_OF_ASC_NODE": 305.9143, "ARG_OF_PERICENTER": 70.7534, "MEAN_ANOMALY": 289.3623, "EPHEMERIS_TYPE": 0, "CLASSIFICATION_TYPE": "U", "NORAD_CAT_ID": 66406, "ELEMENT_SET_NO": 999, "REV_AT_EPOCH": 495, "BSTAR": 0.0024309264, "MEAN_MOTION_DOT": 0.00137322, "MEAN_MOTION_DDOT": 0}, "tle": {"line1": "1 66406U 25257AC  25337.92117566  .00137322  00000+0  24309-2 0  9997", "line2": "2 66406  53.1588 305.9143 0001368  70.7534 289.3623 15.49344183  4956"}}, "geometry": {"type": "Point", "coordinates": [134.32583870877215, -13.9588882625495]}}, {"type": "Feature", "properties": {"norad_id": 66407, "name": "STARLINK-35686", "group": "last-30-days", "lat": -10.969979355652892, "lon": 131.94914078993025, "alt_km": 420.82360718948985, "timestamp": "2025-12-04T09:47:36.301370+00:00", "meta": {"OBJECT_NAME": "STARLINK-35686", "OBJECT_ID": "2025-257AD", "EPOCH": "2025-12-03T17:28:48.372096", "MEAN_MOTION": 15.49350535, "ECCENTRICITY": 0.00015544, "INCLINATION": 53.159, "RA_OF_ASC_NODE": 306.8443, "ARG_OF_PERICENTER": 87.7754, "MEAN_ANOMALY": 272.3433, "EPHEMERIS_TYPE": 0, "CLASSIFICATION_TYPE": "U", "NORAD_CAT_ID": 66407, "ELEMENT_SET_NO": 999, "REV_AT_EPOCH": 498, "BSTAR": 0.0011866096, "MEAN_MOTION_DOT": 0.00066205, "MEAN_MOTION_DDOT": 0}, "tle": {"line1": "1 66407U 25257AD  25337.72833764  .00066205  00000+0  11866-2 0  9996", "line2": "2 66407  53.1590 306.8443 0001554  87.7754 272.3433 15.49350535  4984"}}, "geometry": {"type": "Point", "coordinates": [131.94914078993025, -10.969979355652892]}}, {"type": "Feature", "properties": {"norad_id": 66408, "name": "STARLINK-35679", "group": "last-30-days", "lat": -12.723270762254488, "lon": 133.33561383466068, "alt_km": 420.3746272974504, "timestamp": "2025-12-04T09:47:36.301380+00:00", "meta": {"OBJECT_NAME": "STARLINK-35679", "OBJECT_ID": "2025-257AE", "EPOCH": "2025-12-03T17:28:18.258240", "MEAN_MOTION": 15.4940196, "ECCENTRICITY": 0.00013125, "INCLINATION": 53.1591, "RA_OF_ASC_NODE": 306.8432, "ARG_OF_PERICENTER": 94.7014, "MEAN_ANOMALY": 265.4145, "EPHEMERIS_TYPE": 0, "CLASSIFICATION_TYPE": "U", "NORAD_CAT_ID": 66408, "ELEMENT_SET_NO": 999, "REV_AT_EPOCH": 498, "BSTAR": 0.0028317357, "MEAN_MOTION_DOT": 0.00160851, "MEAN_MOTION_DDOT": 0}, "tle": {"line1": "1 66408U 25257AE  25337.72798910  .00160851  00000+0  28317-2 0  9991", "line2": "2 66408  53.1591 306.8432 0001312  94.7014 265.4145 15.49401960  4985"}}, "geometry": {"type": "Point", "coordinates": [133.33561383466068, -12.723270762254488]}}, {"type": "Feature", "properties": {"norad_id": 66409, "name": "CHUTIAN-2 A", "group": "last-30-days", "lat": 10.340187956013937, "lon": -135.1623560195172, "alt_km": 719.6291291080097, "timestamp": "2025-12-04T09:47:36.301393+00:00", "meta": {"OBJECT_NAME": "CHUTIAN-2 A", "OBJECT_ID": "2025-256A", "EPOCH": "2025-12-03T23:04:34.876992", "MEAN_MOTION": 14.49917864, "ECCENTRICITY": 0.0013226, "INCLINATION": 98.2772, "RA_OF_ASC_NODE": 42.8771, "ARG_OF_PERICENTER": 204.5969, "MEAN_ANOMALY": 155.4596, "EPHEMERIS_TYPE": 0, "CLASSIFICATION_TYPE": "U", "NORAD_CAT_ID": 66409, "ELEMENT_SET_NO": 999, "REV_AT_EPOCH": 360, "BSTAR": 4.7581674e-05, "MEAN_MOTION_DOT": 1.4e-06, "MEAN_MOTION_DDOT": 0}, "tle": {"line1": "1 66409U 25256A   25337.96151478  .00000140  00000+0  47582-4 0  9990", "line2": "2 66409  98.2772  42.8771 0013226 204.5969 155.4596 14.49917864  3607"}}, "geometry": {"type": "Point", "coordinates": [-135.1623560195172, 10.340187956013937]}}, {"type": "Feature", "properties": {"norad_id": 66410, "name": "CHUTIAN-2 B", "group": "last-30-days", "lat": -53.40614934127815, "lon": -147.95897817210235, "alt_km": 720.9259759934539, "timestamp": "2025-12-04T09:47:36.301403+00:00", "meta": {"OBJECT_NAME": "CHUTIAN-2 B", "OBJECT_ID": "2025-256B", "EPOCH": "2025-12-03T22:47:15.154080", "MEAN_MOTION": 14.51007646, "ECCENTRICITY": 0.00133048, "INCLINATION": 98.28, "RA_OF_ASC_NODE": 42.9002, "ARG_OF_PERICENTER": 208.4447, "MEAN_ANOMALY": 151.6023, "EPHEMERIS_TYPE": 0, "CLASSIFICATION_TYPE": "U", "NORAD_CAT_ID": 66410, "ELEMENT_SET_NO": 999, "REV_AT_EPOCH": 360, "BSTAR": 0.00033669247, "MEAN_MOTION_DOT": 1.289e-05, "MEAN_MOTION_DDOT": 0}, "tle": {"line1": "1 66410U 25256B   25337.94948095  .00001289  00000+0  33669-3 0  9994", "line2": "2 66410  98.2800  42.9002 0013304 208.4447 151.6023 14.51007646  3604"}}, "geometry": {"type": "Point", "coordinates": [-147.95897817210235, -53.40614934127815]}}, {"type": "Feature", "properties": {"norad_id": 66411, "name": "ZK-1A R/B", "group": "last-30-days", "lat": 62.2388838237497, "lon": -118.26333295564419, "alt_km": 701.0216717879684, "timestamp": "2025-12-04T09:47:36.301414+00:00", "meta": {"OBJECT_NAME": "ZK-1A R/B", "OBJECT_ID": "2025-256C", "EPOCH": "2025-12-03T18:52:00.613344", "MEAN_MOTION": 15.01632137, "ECCENTRICITY": 0.02295603, "INCLINATION": 98.3249, "RA_OF_ASC_NODE": 44.9175, "ARG_OF_PERICENTER": 274.9185, "MEAN_ANOMALY": 82.5867, "EPHEMERIS_TYPE": 0, "CLASSIFICATION_TYPE": "U", "NORAD_CAT_ID": 66411, "ELEMENT_SET_NO": 999, "REV_AT_EPOCH": 370, "BSTAR": 0.00083035697, "MEAN_MOTION_DOT": 0.00019074, "MEAN_MOTION_DDOT": 0}, "tle": {"line1": "1 66411U 25256C   25337.78611821  .00019074  00000+0  83036-3 0  9995", "line2": "2 66411  98.3249  44.9175 0229560 274.9185  82.5867 15.01632137  3700"}}, "geometry": {"type": "Point", "coordinates": [-118.26333295564419, 62.2388838237497]}}, {"type": "Feature", "properties": {"norad_id": 66412, "name": "HULIANWANG DIGUI 13A", "group": "last-30-days", "lat": -49.637607585491004, "lon": -143.97721733476342, "alt_km": 811.8428918703703, "timestamp": "2025-12-04T09:47:36.301425+00:00", "meta": {"OBJECT_NAME": "HULIANWANG DIGUI 13A", "OBJECT_ID": "2025-258A", "EPOCH": "2025-12-04T00:04:39.884160", "MEAN_MOTION": 14.23492331, "ECCENTRICITY": 0.00140688, "INCLINATION": 50.0041, "RA_OF_ASC_NODE": 298.7447, "ARG_OF_PERICENTER": 326.8338, "MEAN_ANOMALY": 33.1692, "EPHEMERIS_TYPE": 0, "CLASSIFICATION_TYPE": "U", "NORAD_CAT_ID": 66412, "ELEMENT_SET_NO": 999, "REV_AT_EPOCH": 341, "BSTAR": 0.0001212905, "MEAN_MOTION_DOT": 1.19e-06, "MEAN_MOTION_DDOT": 0}, "tle": {"line1": "1 66412U 25258A   25338.00323940  .00000119  00000+0  12129-3 0  9991", "line2": "2 66412  50.0041 298.7447 0014068 326.8338  33.1692 14.23492331  3418"}}, "geometry": {"type": "Point", "coordinates": [-143.97721733476342, -49.637607585491004]}}, {"type": "Feature", "properties": {"norad_id": 66413, "name": "HULIANWANG DIGUI 13B", "group": "last-30-days", "lat": -39.70201528491561, "lon": 161.2987240773086, "alt_km": 818.0726618838708, "timestamp": "2025-12-04T09:47:36.301435+00:00", "meta": {"OBJECT_NAME": "HULIANWANG DIGUI 13B", "OBJECT_ID": "2025-258B", "EPOCH": "2025-12-04T00:15:42.227424", "MEAN_MOTION": 14.23483423, "ECCENTRICITY": 0.0013427, "INCLINATION": 50.0006, "RA_OF_ASC_NODE": 298.7744, "ARG_OF_PERICENTER": 327.6372, "MEAN_ANOMALY": 32.3716, "EPHEMERIS_TYPE": 0, "CLASSIFICATION_TYPE": "U", "NORAD_CAT_ID": 66413, "ELEMENT_SET_NO": 999, "REV_AT_EPOCH": 341, "BSTAR": 0.00013084392, "MEAN_MOTION_DOT": 1.4e-06, "MEAN_MOTION_DDOT": 0}, "tle": {"line1": "1 66413U 25258B   25338.01090541  .00000140  00000+0  13084-3 0  9996", "line2": "2 66413  50.0006 298.7744 0013427 327.6372  32.3716 14.23483423  3415"}}, "geometry": {"type": "Point", "coordinates": [161.2987240773086, -39.70201528491561]}}, {"type": "Feature", "properties": {"norad_id": 66414, "name": "HULIANWANG DIGUI 13C", "group": "last-30-days", "lat": -47.012647975812186, "lon": -178.6681350377004, "alt_km": 815.2565073371361, "timestamp": "2025-12-04T09:47:36.301445+00:00", "meta": {"OBJECT_NAME": "HULIANWANG DIGUI 13C", "OBJECT_ID": "2025-258C", "EPOCH": "2025-12-04T00:11:08.736000", "MEAN_MOTION": 14.23508968, "ECCENTRICITY": 0.00136036, "INCLINATION": 50.0047, "RA_OF_ASC_NODE": 298.7734, "ARG_OF_PERICENTER": 325.8893, "MEAN_ANOMALY": 34.1145, "EPHEMERIS_TYPE": 0, "CLASSIFICATION_TYPE": "U", "NORAD_CAT_ID": 66414, "ELEMENT_SET_NO": 999, "REV_AT_EPOCH": 341, "BSTAR": 0.00014554892, "MEAN_MOTION_DOT": 1.74e-06, "MEAN_MOTION_DDOT": 0}, "tle": {"line1": "1 66414U 25258C   25338.00774000  .00000174  00000+0  14555-3 0  9996", "line2": "2 66414  50.0047 298.7734 0013603 325.8893  34.1145 14.23508968  3412"}}, "geometry": {"type": "Point", "coordinates": [-178.6681350377004, -47.012647975812186]}}, {"type": "Feature", "properties": {"norad_id": 66415, "name": "HULIANWANG DIGUI 13D", "group": "last-30-days", "lat": -48.255293197103875, "lon": -133.15426260797418, "alt_km": 811.8952004275907, "timestamp": "2025-12-04T09:47:36.301455+00:00", "meta": {"OBJECT_NAME": "HULIANWANG DIGUI 13D", "OBJECT_ID": "2025-258D", "EPOCH": "2025-12-04T00:02:38.227776", "MEAN_MOTION": 14.23497397, "ECCENTRICITY": 0.00133344, "INCLINATION": 50.0039, "RA_OF_ASC_NODE": 298.7379, "ARG_OF_PERICENTER": 332.4989, "MEAN_ANOMALY": 27.5217, "EPHEMERIS_TYPE": 0, "CLASSIFICATION_TYPE": "U", "NORAD_CAT_ID": 66415, "ELEMENT_SET_NO": 999, "REV_AT_EPOCH": 341, "BSTAR": 0.00015515174, "MEAN_MOTION_DOT": 1.96e-06, "MEAN_MOTION_DDOT": 0}, "tle": {"line1": "1 66415U 25258D   25338.00183134  .00000196  00000+0  15515-3 0  9990", "line2": "2 66415  50.0039 298.7379 0013334 332.4989  27.5217 14.23497397  3419"}}, "geometry": {"type": "Point", "coordinates": [-133.15426260797418, -48.255293197103875]}}]}